{
    "links": {
        "self": "http://www.neowsapp.com/rest/v1/neo/3520760?api_key=iIulBulltgU6a56xZRHN4H3l9WmuAYTsLGpBGhQ2"
    },
    "id": "3520760",
    "neo_reference_id": "3520760",
    "name": "(2010 JK41)",
    "designation": "2010 JK41",
    "nasa_jpl_url": "http://ssd.jpl.nasa.gov/sbdb.cgi?sstr=3520760",
    "absolute_magnitude_h": 20.1,
    "estimated_diameter": {
        "kilometers": {
            "estimated_diameter_min": 0.2538370294,
            "estimated_diameter_max": 0.5675968529
        },
        "meters": {
            "estimated_diameter_min": 253.8370293645,
            "estimated_diameter_max": 567.5968528656
        },
        "miles": {
            "estimated_diameter_min": 0.1577269688,
            "estimated_diameter_max": 0.3526882241
        },
        "feet": {
            "estimated_diameter_min": 832.7986794202,
            "estimated_diameter_max": 1862.1944587557
        }
    },
    "is_potentially_hazardous_asteroid": false,
    "close_approach_data": [
        {
            "close_approach_date": "1976-09-30",
            "close_approach_date_full": "1976-Sep-30 17:05",
            "epoch_date_close_approach": 212951100000,
            "relative_velocity": {
                "kilometers_per_second": "6.8474515195",
                "kilometers_per_hour": "24650.8254702329",
                "miles_per_hour": "15317.06430399"
            },
            "miss_distance": {
                "astronomical": "1.0703732607",
                "lunar": "416.3751984123",
                "kilometers": "160125559.905674709",
                "miles": "99497409.1692166242"
            },
            "orbiting_body": "Juptr"
        },
        {
            "close_approach_date": "2001-05-18",
            "close_approach_date_full": "2001-May-18 14:20",
            "epoch_date_close_approach": 990195600000,
            "relative_velocity": {
                "kilometers_per_second": "13.7926717431",
                "kilometers_per_hour": "49653.6182752273",
                "miles_per_hour": "30852.8274221822"
            },
            "miss_distance": {
                "astronomical": "0.3905006764",
                "lunar": "151.9047631196",
                "kilometers": "58418069.422999268",
                "miles": "36299305.1183071784"
            },
            "orbiting_body": "Earth"
        },
        {
            "close_approach_date": "2010-05-27",
            "close_approach_date_full": "2010-May-27 14:22",
            "epoch_date_close_approach": 1274970120000,
            "relative_velocity": {
                "kilometers_per_second": "16.1860964867",
                "kilometers_per_hour": "58269.9473521643",
                "miles_per_hour": "36206.6792311267"
            },
            "miss_distance": {
                "astronomical": "0.2542733987",
                "lunar": "98.9123520943",
                "kilometers": "38038758.843180769",
                "miles": "23636188.7205178522"
            },
            "orbiting_body": "Earth"
        },
        {
            "close_approach_date": "2071-10-06",
            "close_approach_date_full": "2071-Oct-06 12:39",
            "epoch_date_close_approach": 3211360740000,
            "relative_velocity": {
                "kilometers_per_second": "6.8133029418",
                "kilometers_per_hour": "24527.8905905814",
                "miles_per_hour": "15240.6773505754"
            },
            "miss_distance": {
                "astronomical": "1.7631209421",
                "lunar": "685.8540464769",
                "kilometers": "263759137.490553327",
                "miles": "163892328.2483848326"
            },
            "orbiting_body": "Juptr"
        }
    ],
    "orbital_data": {
        "orbit_id": "31",
        "orbit_determination_date": "2017-04-06 08:57:33",
        "first_observation_date": "2010-05-10",
        "last_observation_date": "2010-06-18",
        "data_arc_in_days": 39,
        "observations_used": 140,
        "orbit_uncertainty": "6",
        "minimum_orbit_intersection": ".245391",
        "jupiter_tisserand_invariant": "2.975",
        "epoch_osculation": "2459000.5",
        "eccentricity": ".5639166838071862",
        "semi_major_axis": "2.752008637843528",
        "inclination": "25.48365669466392",
        "ascending_node_longitude": "72.0326548538106",
        "orbital_period": "1667.527926651794",
        "perihelion_distance": "1.200105052982074",
        "perihelion_argument": "144.5870906553426",
        "aphelion_distance": "4.303912222704983",
        "perihelion_time": "2458654.358138490497",
        "mean_anomaly": "74.72802593095142",
        "mean_motion": ".2158884383560754",
        "equinox": "J2000",
        "orbit_class": {
            "orbit_class_type": "AMO",
            "orbit_class_description": "Near-Earth asteroid orbits similar to that of 1221 Amor",
            "orbit_class_range": "1.017 AU < q (perihelion) < 1.3 AU"
        }
    },
    "is_sentry_object": false
}